#dP2018  8  6  0  0  0.00000000      96 __u+U IGS08 FIT  IAC
## 2013  86400.00000000   900.00000000 58336 0.0000000000000
+   86   C01C02C03C04C05C06C07C08C09C10C11C12C13C14E01E02E03
+        E04E05E07E08E09E11E12E14E18E19E24E26E30G01G02G03G05
+        G06G07G08G09G10G11G12G13G14G15G16G17G18G19G20G21G22
+        G23G24G25G26G27G28G29G30G31G32J01J02J03R01R02R03R04
+        R07R08R09R10R11R13R14R15R16R17R18R19R20R21R22R23R24
+        R26  0  0  0  0  0  0  0  0  0  0  0  0  0  0  0  0
++        12 12 12 12 12  8  8  8  7  8  7  7  8  7  7  7  7
++         7  7  7  7  7  7  7  7  7  7  7  7  7  3  3  3  3
++         3  3  3  3  3  3  3  3  3  3  3  3  3  3  3  3  3
++         3  3  3  3  3  3  3  3  3  3  8 11 10  5  5  5  5
++         7  5  5  5  5  5  5  5  5  5  5  5  5  5  5  5  5
++         8  0  0  0  0  0  0  0  0  0  0  0  0  0  0  0  0
%c M  cc GPS ccc cccc cccc cccc cccc ccccc ccccc ccccc ccccc
%c cc cc ccc ccc cccc cccc cccc cccc ccccc ccccc ccccc ccccc
%f  1.2500000  1.025000000  0.00000000000  0.000000000000000
%f  0.0000000  0.000000000  0.00000000000  0.000000000000000
%i    0    0    0    0      0      0      0      0         0
%i    0    0    0    0      0      0      0      0         0
/* INFORMATION & ANALYSIS CENTER (IAC)            FINAL DATA
/* S/V CLOCKS ARE ALIGNED TO GPS & GLONASS TIME RESPECTIVELY
/* USING THE BROADCAST EPHEMERIS                            
/* PCV:IGS14_2000 OL/AL:FES2004  NONE     YN ORB:CoN CLK:CoN
*  2018 08 06 10 15  0.00000000
PC01 -32322.447021  27055.914433   -961.738204    435.074042
PC02   4463.576444  41898.133361   1356.843076    -83.380637
PC03 -14736.915731  39516.670603   -295.439236    307.220392
PC04 -39620.652749  14383.742346   -379.166552   -244.429022
PC05  21934.173418  36007.769447   1099.448542    249.101274
PC06  -8595.683740  36564.065726  19768.045280    208.280200
PC07 -16131.117409  21086.795843 -32700.823110     35.585307
PC08 -24751.383822  31329.099119  13180.566018    471.689426
PC09   -717.787323  41635.629261   7821.001189    115.268581
PC10    654.285303  26350.505420 -32717.478626   -444.510375
PC11 -11913.189502 -10838.357255 -22749.498801   -623.399684
PC12   1186.511917 -25197.879763 -11986.774150    547.242132
PC13 -13332.107620  32272.520083  23463.445416   -213.282497
PC14 -20163.330378 -18451.284638   5565.352027    362.582177
PE01  27828.568960   -781.999744  10036.873810   -406.795626
PE02 -27829.500756    797.276073 -10058.866460     22.403995
PE03 -17160.589290   2415.577538  24006.229559    -62.660471
PE04   6948.163514 -21859.626080 -18698.145959    -90.554297
PE05 -17346.758987 -18514.628662  15256.650221    216.072604
PE07   7370.499164  28562.387069   2415.639521    -15.197799
PE08  -6652.417214  21882.567749  18794.015205   6529.079725
PE09  -7659.421461 -28496.996499  -2417.124974   6713.844989
PE11   1207.701376 -21699.091502 -20099.280894   3365.802178
PE12  17530.121360 -23547.844869  -3725.667173   4766.214658
PE14  14125.542413 -12063.753662  14646.637734   6539.729392
PE18 -20697.552103  11039.306275 -22385.354353   6003.755034
PE19  17523.149883   -300.890073 -23844.362475    -13.441419
PE24  -8761.049330 -17045.103307  22549.984290   6561.741319
PE26  15299.494569   7459.821485  24213.188333   5625.240735
PE30 -13503.290886  12613.624792 -23130.686397   5618.205677
PG01   2704.370433 -16646.607803 -20603.246285    -73.473079
PG02 -20413.712006  15824.015496   6203.742150     36.212471
PG03  -7850.544218 -19515.068806 -16283.771170    117.260548
PG05 -12756.116978   9658.277783  21119.774829     -3.563290
PG06 -24641.581137   4905.819775  -8622.884964    379.359734
PG07 -13922.752337  -9811.954189  20719.594494    146.430910
PG08   5875.004393 -25218.348870   5575.243789   -110.708662
PG09  -8498.709921 -20717.130944  14244.496215    511.895110
PG10  23465.887041   9527.569687  -8233.732162    187.568698
PG11   4344.158901 -22302.978737 -14457.652342   -726.326424
PG12   1859.815562  18158.683377 -19549.884977    315.975363
PG13 -12494.523143  20368.720879  11478.730691    -91.402995
PG14  15470.874767  -6727.284008 -20166.003802    -97.647357
PG15  -1778.493984  26186.717747   2098.499410   -349.149884
PG16  14157.674207  -6573.525645  21398.277473     14.749313
PG17 -14046.947385  -4211.310096 -21762.157877    -70.327662
PG18  11395.065090 -18439.733299 -15705.030970     42.462750
PG19 -15514.940526   6458.858463 -20903.342567   -414.151031
PG20  22569.086419  13979.609104   1724.051256    513.682924
PG21  17152.736202   7163.497512  19757.994765   -356.711851
PG22    194.646821 -17423.864960 -19813.627479   -480.800265
PG23  -2016.217421 -25729.208574   5539.020306   -213.291705
PG24  -6406.562956  18214.760360 -18230.090499    -53.577803
PG25  15717.688301  19335.771166  -9701.848491   -627.431803
PG26  21068.478193    440.023676  16239.513920    -60.353108
PG27  11948.824591 -17928.871850  15270.870836    356.026407
PG28 -21854.059106 -13705.282386  -5584.561086    736.382984
PG29   5605.022728  22176.960749  13475.755896    401.142760
PG30 -21972.291998  -2779.803425  14803.263861     41.217245
PG31  25324.310129  -5828.782560  -6445.612206    102.586201
PG32  15017.325268   3284.508807 -21621.065748   -458.357063
PJ01 -23891.143643  24427.911062  29837.841993   -152.128270
PJ02 -34939.957828  16080.526209 -12794.899542    -11.363283
PJ03 -19807.554054  30970.448752 -16002.923390     -5.497887
PR01  14398.194304  20313.133753  -5499.768119     30.135223
PR02  13822.995960   4853.147219 -20853.131391    323.348345
PR03   4954.371860 -12519.745094 -21613.158195    139.744355
PR04  -7181.021752 -22603.715729  -9351.430700    271.318815
PR07  -4672.752412  12953.217044  21517.485575    -44.159712
PR08   6676.864971  22488.946206  10076.232881     21.924672
PR09 -25390.576623    375.892950  -2785.989628     21.842430
PR10 -16772.148465   7489.539418 -17760.724238     29.208223
PR11   2276.215748  11030.461696 -22865.883389    -36.868945
PR13  25364.557060   -648.038516   2530.291078    -13.291145
PR14  16754.535377  -7744.227145  17609.668139     29.769987
PR15   2549.117742 -10548.043053  23099.059922    -14.259482
PR16 -18916.208447  -7606.046015  15243.054066     98.645077
PR17  15201.626508 -19849.119549   5157.973637    153.830936
PR18   7114.907147 -21482.484425 -11706.952480    205.745460
PR19  -4691.063770 -11312.906137 -22382.642420    -57.597894
PR20 -14914.594746   6629.243519 -19619.951709   -347.744559
PR21 -15056.611083  20009.866367  -4789.117803      3.442019
PR22  -5872.451706  20873.903319  13533.167401    -58.165607
PR23   7617.973331   7598.027257  23113.694847    170.282489
PR24  15095.128516  -7858.430997  18964.792733   -169.796179
PR26 -14442.520448   5795.233179 -20196.069992     39.326652
EOF
